NORAD_CAT_ID,OBJECT_NAME,OBJECT_TYPE,EPOCH,MEAN_MOTION,ECCENTRICITY,INCLINATION,RA_OF_ASC_NODE,ARG_OF_PERICENTER,MEAN_ANOMALY,BSTAR,MEAN_MOTION_DOT,MEAN_MOTION_DDOT,TLE_LINE0,TLE_LINE1,TLE_LINE2,SEMIMAJOR_AXIS,PERIOD,APOGEE,PERIGEE,DECAYED
52662.0,STARLINK-4044,PAYLOAD,2022-12-06 22:22:18,15.08831356,0.0002589,53.2168,90.6733,39.0372,321.0807,-7.5113e-05,-1.483e-05,0.0,0 STARLINK-4044,1 52662U 22053G   22340.93216308 -.00001483  00000-0 -75113-4 0  9995,2 52662  53.2168  90.6733 0002589  39.0372 321.0807 15.08831356 31582,6917.906999999997,95.438,541.563,537.981,0.0
52662.0,STARLINK-4044,PAYLOAD,2022-12-07 14:16:11,15.08813476,0.0002082,53.217,87.7,22.2448,337.8634,-0.00016201,-2.864e-05,0.0,0 STARLINK-4044,1 52662U 22053G   22341.59457274 -.00002864  00000-0 -16201-3 0  9993,2 52662  53.2170  87.7000 0002082  22.2448 337.8634 15.08813476 31682,6917.9609999999975,95.439,541.2669999999998,538.386,0.0
52662.0,STARLINK-4044,PAYLOAD,2022-12-07 22:13:07,15.08777355,0.0002072,53.217,86.2132,55.5432,304.5755,-0.0014074,-0.00022579,0.0,0 STARLINK-4044,1 52662U 22053G   22341.92578435 -.00022579  00000-0 -14074-2 0  9993,2 52662  53.2170  86.2132 0002072  55.5432 304.5755 15.08777355 31739,6918.071999999999,95.442,541.37,538.503,0.0
52662.0,STARLINK-4044,PAYLOAD,2022-12-08 07:45:25,15.08824268,0.0002503,53.2181,84.4318,45.8509,314.2689,-0.00030633,-5.158e-05,0.0,0 STARLINK-4044,1 52662U 22053G   22342.32321358 -.00005158  00000-0 -30633-3 0  9992,2 52662  53.2181  84.4318 0002503  45.8509 314.2689 15.08824268 31799,6917.928000000001,95.439,541.525,538.062,0.0
52662.0,STARLINK-4044,PAYLOAD,2022-12-08 14:06:57,15.08847109,0.0002124,53.2185,83.2448,45.3618,314.7547,0.00031514,4.732e-05,0.0,0 STARLINK-4044,1 52662U 22053G   22342.58816703  .00004732  00000-0  31514-3 0  9997,2 52662  53.2185  83.2448 0002124  45.3618 314.7547 15.08847109 31831,6917.859,95.437,541.193,538.254,0.0
52662.0,STARLINK-4044,PAYLOAD,2022-12-08 23:39:14,15.08937233,0.0001383,53.2183,81.4597,348.3036,11.7924,0.0031909,0.00050999,0.0,0 STARLINK-4044,1 52662U 22053G   22342.98557885  .00050999  00000-0  31909-2 0  9997,2 52662  53.2183  81.4597 0001383 348.3036  11.7924 15.08937233 31897,6917.583000000001,95.431,540.405,538.492,0.0
52662.0,STARLINK-4044,PAYLOAD,2022-12-09 18:43:53,15.08802339,0.0001237,53.2179,77.8918,43.62300000000001,316.486,-0.0016635,-0.00026637,0.0,0 STARLINK-4044,1 52662U 22053G   22343.78048058 -.00026637  00000-0 -16635-2 0  9996,2 52662  53.2179  77.8918 0001237  43.6230 316.4860 15.08802339 32014,6917.996,95.44,540.716,539.005,0.0
52662.0,STARLINK-4044,PAYLOAD,2022-12-10 10:37:46,15.08809853,0.0002395,53.2179,74.9173,25.0496,335.0612,0.00066072,0.00010234,0.0,0 STARLINK-4044,1 52662U 22053G   22344.44289836  .00010234  00000-0  66072-3 0  9996,2 52662  53.2179  74.9173 0002395  25.0496 335.0612 15.08809853 32110,6917.973000000001,95.439,541.494,538.181,0.0
52662.0,STARLINK-4044,PAYLOAD,2022-12-10 18:34:42,15.08824705,0.0002288,53.2188,73.4295,29.5688,330.5433,0.0011317,0.00017762,0.0,0 STARLINK-4044,1 52662U 22053G   22344.77410101  .00017762  00000-0  11317-2 0  9997,2 52662  53.2188  73.4295 0002288  29.5688 330.5433 15.08824705 32161,6917.927,95.439,541.375,538.2090000000002,0.0
52662.0,STARLINK-4044,PAYLOAD,2022-12-11 13:39:19,15.08847375,0.0002398,53.2177,69.8592,33.0476,327.0666,0.00060958,9.429e-05,0.0,0 STARLINK-4044,1 52662U 22053G   22345.56898031  .00009429  00000-0  60958-3 0  9994,2 52662  53.2177  69.8592 0002398  33.0476 327.0666 15.08847375 32285,6917.858,95.437,541.382,538.064,0.0
52662.0,STARLINK-4044,PAYLOAD,2022-12-11 20:00:52,15.08852232,0.0002921999999999,53.2184,68.6693,31.1953,328.9212,0.00079169,0.00012339,0.0,0 STARLINK-4044,1 52662U 22053G   22345.83394016  .00012339  00000-0  79169-3 0  9996,2 52662  53.2184  68.6693 0002922  31.1953 328.9212 15.08852232 32324,6917.843000000003,95.437,541.729,537.687,0.0
52662.0,STARLINK-4044,PAYLOAD,2022-12-11 21:36:15,15.08846189,0.0002578,53.2191,68.373,29.9408,330.1731,0.0004207,6.415e-05,0.0,0 STARLINK-4044,1 52662U 22053G   22345.90017945  .00006415  00000-0  42070-3 0  9996,2 52662  53.2191  68.3730 0002578  29.9408 330.1731 15.08846189 32334,6917.861,95.437,541.51,537.943,0.0
52662.0,STARLINK-4044,PAYLOAD,2022-12-12 10:19:20,15.0883843,0.0002959,53.2184,65.9935,24.3084,335.8047,1.0515e-05,-1.21e-06,0.0,0 STARLINK-4044,1 52662U 22053G   22346.43009980 -.00000121  00000-0  10515-4 0  9994,2 52662  53.2184  65.9935 0002959  24.3084 335.8047 15.08838430 32419,6917.885,95.438,541.797,537.703,0.0
52662.0,STARLINK-4044,PAYLOAD,2022-12-12 11:54:43,15.08841822,0.0002927,53.218,65.6958,26.7416,333.3727,0.00010196,1.335e-05,0.0,0 STARLINK-4044,1 52662U 22053G   22346.49633886  .00001335  00000-0  10196-3 0  9999,2 52662  53.2180  65.6958 0002927  26.7416 333.3727 15.08841822 32425,6917.875,95.437,541.765,537.715,0.0
52662.0,STARLINK-4044,PAYLOAD,2022-12-12 16:40:52,15.088490300000002,0.0002317,53.2184,64.8039,31.4827,328.6304,0.00023228,3.411e-05,0.0,0 STARLINK-4044,1 52662U 22053G   22346.69505520  .00003411  00000-0  23228-3 0  9991,2 52662  53.2184  64.8039 0002317  31.4827 328.6304 15.08849030 32452,6917.853,95.437,541.321,538.115,0.0
52662.0,STARLINK-4044,PAYLOAD,2022-12-12 19:51:39,15.08845679,0.0002536,53.2194,64.2083,31.1578,328.9564,0.00012068,1.633e-05,0.0,0 STARLINK-4044,1 52662U 22053G   22346.82753586  .00001633  00000-0  12068-3 0  9997,2 52662  53.2194  64.2083 0002536  31.1578 328.9564 15.08845679 32477,6917.863,95.437,541.482,537.974,0.0
52662.0,STARLINK-4044,PAYLOAD,2022-12-13 05:23:57,15.08843201,0.0002182,53.2186,62.4233,29.1797,330.9316,7.5395e-05,9.12e-06,0.0,0 STARLINK-4044,1 52662U 22053G   22347.22497555  .00000912  00000-0  75395-4 0  9995,2 52662  53.2186  62.4233 0002182  29.1797 330.9316 15.08843201 32536,6917.871,95.437,541.245,538.226,0.0
52662.0,STARLINK-4044,PAYLOAD,2022-12-13 10:10:07,15.08841846,0.0002257,53.2182,61.532,28.8113,331.3004,7.958e-05,9.79e-06,0.0,0 STARLINK-4044,1 52662U 22053G   22347.42369576  .00000979  00000-0  79580-4 0  9991,2 52662  53.2182  61.5320 0002257  28.8113 331.3004 15.08841846 32565,6917.875,95.437,541.3009999999998,538.178,0.0
52662.0,STARLINK-4044,PAYLOAD,2022-12-14 10:00:54,15.08839732,0.0002143,53.2164,57.0704,36.4605,323.6533,0.00015373,2.159e-05,0.0,0 STARLINK-4044,1 52662U 22053G   22348.41729610  .00002159  00000-0  15373-3 0  9991,2 52662  53.2164  57.0704 0002143  36.4605 323.6533 15.08839732 32715,6917.880999999999,95.438,541.229,538.264,0.0
52662.0,STARLINK-4044,PAYLOAD,2022-12-14 17:57:50,15.08836355,0.000208,53.2172,55.5844,21.7111,338.3969,1.1779e-05,-1.01e-06,0.0,0 STARLINK-4044,1 52662U 22053G   22348.74849729 -.00000101  00000-0  11779-4 0  9994,2 52662  53.2172  55.5844 0002080  21.7111 338.3969 15.08836355 32760,6917.892,95.438,541.195,538.318,0.0
52662.0,STARLINK-4044,PAYLOAD,2022-12-14 21:08:36,15.08834679,0.0002283,53.2169,54.9919,27.0966,333.0145,2.8066000000000004e-06,-2.44e-06,0.0,0 STARLINK-4044,1 52662U 22053G   22348.88097952 -.00000244  00000-0  28066-5 0  9998,2 52662  53.2169  54.9919 0002283  27.0966 333.0145 15.08834679 32781,6917.897,95.438,541.341,538.182,0.0
52662.0,STARLINK-4044,PAYLOAD,2022-12-15 11:27:04,15.08854109,0.000257,53.217,52.3156,26.1992,333.913,0.00054674,8.427e-05,0.0,0 STARLINK-4044,1 52662U 22053G   22349.47713636  .00008427  00000-0  54674-3 0  9990,2 52662  53.2170  52.3156 0002570  26.1992 333.9130 15.08854109 32879,6917.837,95.437,541.48,537.924,0.0
52662.0,STARLINK-4044,PAYLOAD,2022-12-15 13:02:27,15.08859313,0.0002583999999999,53.2168,52.0178,27.4964,332.6165,0.00071077,0.00011048,0.0,0 STARLINK-4044,1 52662U 22053G   22349.54337509  .00011048  00000-0  71077-3 0  9998,2 52662  53.2168  52.0178 0002584  27.4964 332.6165 15.08859313 32882,6917.821,95.436,541.474,537.899,0.0
52662.0,STARLINK-4044,PAYLOAD,2022-12-15 20:59:23,15.08847531,0.0002702,53.2173,50.5291,30.7414,329.3736,0.00031841,4.784e-05,0.0,0 STARLINK-4044,1 52662U 22053G   22349.87457623  .00004784  00000-0  31841-3 0  9998,2 52662  53.2173  50.5291 0002702  30.7414 329.3736 15.08847531 32938,6917.857,95.437,541.592,537.8530000000002,0.0
52662.0,STARLINK-4044,PAYLOAD,2022-12-16 12:53:14,15.08838101,0.0002555,53.2164,47.5572,29.106,331.0074,3.9603e-06,-2.25e-06,0.0,0 STARLINK-4044,1 52662U 22053G   22350.53697732 -.00000225  00000-0  39603-5 0  9993,2 52662  53.2164  47.5572 0002555  29.1060 331.0074 15.08838101 33031,6917.886,95.438,541.519,537.984,0.0
52662.0,STARLINK-4044,PAYLOAD,2022-12-17 12:44:02,15.08834304,0.0002618,53.2172,43.0967,30.1592,329.9551,-6.2136e-05,-1.277e-05,0.0,0 STARLINK-4044,1 52662U 22053G   22351.53058178 -.00001277  00000-0 -62136-4 0  9994,2 52662  53.2172  43.0967 0002618  30.1592 329.9551 15.08834304 33184,6917.898,95.438,541.5740000000002,537.952,0.0
52662.0,STARLINK-4044,PAYLOAD,2022-12-17 20:40:58,15.08826336,0.000263,53.2172,41.61,30.6382,329.4763,-0.0001498,-2.671e-05,0.0,0 STARLINK-4044,1 52662U 22053G   22351.86178734 -.00002671  00000-0 -14980-3 0  9993,2 52662  53.2172  41.6100 0002630  30.6382 329.4763 15.08826336 33235,6917.922,95.438,541.607,537.9680000000002,0.0
52662.0,STARLINK-4044,PAYLOAD,2022-12-18 03:02:30,15.08833722,0.0002553,53.2175,40.4209,28.6348,331.4784,6.2599e-05,7.08e-06,0.0,0 STARLINK-4044,1 52662U 22053G   22352.12674726  .00000708  00000-0  62599-4 0  9992,2 52662  53.2175  40.4209 0002553  28.6348 331.4784 15.08833722 33275,6917.9,95.438,541.531,537.998,0.0
52662.0,STARLINK-4044,PAYLOAD,2022-12-18 09:24:03,15.08844545,0.000246,53.2178,39.2314,34.1346,325.9804,2.6387e-05,1.32e-06,0.0,0 STARLINK-4044,1 52662U 22053G   22352.39170328  .00000132  00000-0  26387-4 0  9996,2 52662  53.2178  39.2314 0002460  34.1346 325.9804 15.08844545 33319,6917.866,95.437,541.433,538.03,0.0
